{"type": "FeatureCollection", "features": [ {"type": "Feature", "properties": {"norad_id": 34874, "name": "COSMOS 2251 DEB", "group": "cosmos-2251-debris", "lat": 37.29481596153622, "lon": -122.01898066635428, "alt_km": 741.9893697527914, "timestamp": "2025-12-14T11:29:50.455661+00:00", "meta": {"OBJECT_NAME": "COSMOS 2251 DEB", "OBJECT_ID": "1993-036ACM", "EPOCH": "2025-12-13T15:06:41.355648", "MEAN_MOTION": 14.36316745, "ECCENTRICITY": 0.00509273, "INCLINATION": 74.0396, "RA_OF_ASC_NODE": 72.1302, "ARG_OF_PERICENTER": 97.1629, "MEAN_ANOMALY": 332.9464, "EPHEMERIS_TYPE": 0, "CLASSIFICATION_TYPE": "U", "NORAD_CAT_ID": 34874, "ELEMENT_SET_NO": 999, "REV_AT_EPOCH": 87057, "BSTAR": 0.0010808873, "MEAN_MOTION_DOT": 3.183e-05, "MEAN_MOTION_DDOT": 0}, "tle": {"line1": "1 34874U 93036ACM 25347.62964532  .00003183  00000+0  10809-2 0  9999", "line2": "2 34874  74.0396  72.1302 0050927  97.1629 332.9464 14.36316745870577"}}, "geometry": {"type": "Point", "coordinates": [-122.01898066635428, 37.29481596153622]}}, {"type": "Feature", "properties": {"norad_id": 34875, "name": "COSMOS 2251 DEB", "group": "cosmos-2251-debris", "lat": -73.90557693883105, "lon": 72.38045947705474, "alt_km": 724.6852169365739, "timestamp": "2025-12-14T11:29:50.455671+00:00", "meta": {"OBJECT_NAME": "COSMOS 2251 DEB", "OBJECT_ID": "1993-036ACN", "EPOCH": "2025-12-13T12:58:02.605152", "MEAN_MOTION": 14.48928966, "ECCENTRICITY": 0.0016151, "INCLINATION": 74.0435, "RA_OF_ASC_NODE": 156.7147, "ARG_OF_PERICENTER": 280.3903, "MEAN_ANOMALY": 137.0272, "EPHEMERIS_TYPE": 0, "CLASSIFICATION_TYPE": "U", "NORAD_CAT_ID": 34875, "ELEMENT_SET_NO": 999, "REV_AT_EPOCH": 87767, "BSTAR": 0.00065299768, "MEAN_MOTION_DOT": 2.45e-05, "MEAN_MOTION_DDOT": 0}, "tle": {"line1": "1 34875U 93036ACN 25347.54030793  .00002450  00000+0  65300-3 0  9997", "line2": "2 34875  74.0435 156.7147 0016151 280.3903 137.0272 14.48928966877676"}}, "geometry": {"type": "Point", "coordinates": [72.38045947705474, -73.90557693883105]}}, {"type": "Feature", "properties": {"norad_id": 34878, "name": "COSMOS 2251 DEB", "group": "cosmos-2251-debris", "lat": 64.26565111816363, "lon": -172.06129744744004, "alt_km": 1031.236761872693, "timestamp": "2025-12-14T11:29:50.455680+00:00", "meta": {"OBJECT_NAME": "COSMOS 2251 DEB", "OBJECT_ID": "1993-036ACR", "EPOCH": "2025-12-09T11:24:21.665664", "MEAN_MOTION": 13.44185831, "ECCENTRICITY": 0.04353122, "INCLINATION": 73.9652, "RA_OF_ASC_NODE": 52.502, "ARG_OF_PERICENTER": 36.6708, "MEAN_ANOMALY": 343.8238, "EPHEMERIS_TYPE": 0, "CLASSIFICATION_TYPE": "U", "NORAD_CAT_ID": 34878, "ELEMENT_SET_NO": 999, "REV_AT_EPOCH": 81229, "BSTAR": 0.00088072379, "MEAN_MOTION_DOT": 8.84e-06, "MEAN_MOTION_DDOT": 0}, "tle": {"line1": "1 34878U 93036ACR 25343.47525076  .00000884  00000+0  88072-3 0  9991", "line2": "2 34878  73.9652  52.5020 0435312  36.6708 343.8238 13.44185831812297"}}, "geometry": {"type": "Point", "coordinates": [-172.06129744744004, 64.26565111816363]}}, {"type": "Feature", "properties": {"norad_id": 34882, "name": "COSMOS 2251 DEB", "group": "cosmos-2251-debris", "lat": -61.62672171266126, "lon": -169.7152011514697, "alt_km": 660.8755663533766, "timestamp": "2025-12-14T11:29:50.455690+00:00", "meta": {"OBJECT_NAME": "COSMOS 2251 DEB", "OBJECT_ID": "1993-036ACV", "EPOCH": "2025-12-12T15:26:33.087264", "MEAN_MOTION": 14.61597611, "ECCENTRICITY": 0.00828094, "INCLINATION": 74.0462, "RA_OF_ASC_NODE": 225.7751, "ARG_OF_PERICENTER": 352.7324, "MEAN_ANOMALY": 7.2634, "EPHEMERIS_TYPE": 0, "CLASSIFICATION_TYPE": "U", "NORAD_CAT_ID": 34882, "ELEMENT_SET_NO": 999, "REV_AT_EPOCH": 88523, "BSTAR": 0.00026902724, "MEAN_MOTION_DOT": 1.371e-05, "MEAN_MOTION_DDOT": 0}, "tle": {"line1": "1 34882U 93036ACV 25346.64343851  .00001371  00000+0  26903-3 0  9994", "line2": "2 34882  74.0462 225.7751 0082809 352.7324   7.2634 14.61597611885231"}}, "geometry": {"type": "Point", "coordinates": [-169.7152011514697, -61.62672171266126]}}, {"type": "Feature", "properties": {"norad_id": 34883, "name": "COSMOS 2251 DEB", "group": "cosmos-2251-debris", "lat": -71.50057166141409, "lon": 1.6587170966924591, "alt_km": 672.3335823923662, "timestamp": "2025-12-14T11:29:50.455700+00:00", "meta": {"OBJECT_NAME": "COSMOS 2251 DEB", "OBJECT_ID": "1993-036ACW", "EPOCH": "2025-12-12T05:16:46.096608", "MEAN_MOTION": 14.51477124, "ECCENTRICITY": 0.00951451, "INCLINATION": 74.1989, "RA_OF_ASC_NODE": 63.6857, "ARG_OF_PERICENTER": 248.9733, "MEAN_ANOMALY": 110.1233, "EPHEMERIS_TYPE": 0, "CLASSIFICATION_TYPE": "U", "NORAD_CAT_ID": 34883, "ELEMENT_SET_NO": 999, "REV_AT_EPOCH": 86432, "BSTAR": 0.0063651984, "MEAN_MOTION_DOT": 0.00027049, "MEAN_MOTION_DDOT": 0}, "tle": {"line1": "1 34883U 93036ACW 25346.21997797  .00027049  00000+0  63652-2 0  9993", "line2": "2 34883  74.1989  63.6857 0095145 248.9733 110.1233 14.51477124864321"}}, "geometry": {"type": "Point", "coordinates": [1.6587170966924591, -71.50057166141409]}}, {"type": "Feature", "properties": {"norad_id": 34884, "name": "COSMOS 2251 DEB", "group": "cosmos-2251-debris", "lat": 73.43796369893863, "lon": 158.73638559920985, "alt_km": 588.3724705437708, "timestamp": "2025-12-14T11:29:50.455710+00:00", "meta": {"OBJECT_NAME": "COSMOS 2251 DEB", "OBJECT_ID": "1993-036ACX", "EPOCH": "2025-12-13T14:39:34.016832", "MEAN_MOTION": 14.90131565, "ECCENTRICITY": 0.00024478, "INCLINATION": 74.0177, "RA_OF_ASC_NODE": 54.9969, "ARG_OF_PERICENTER": 77.0755, "MEAN_ANOMALY": 41.4804, "EPHEMERIS_TYPE": 0, "CLASSIFICATION_TYPE": "U", "NORAD_CAT_ID": 34884, "ELEMENT_SET_NO": 999, "REV_AT_EPOCH": 87818, "BSTAR": 0.0027796779, "MEAN_MOTION_DOT": 0.00026971, "MEAN_MOTION_DDOT": 0}, "tle": {"line1": "1 34884U 93036ACX 25347.61081038  .00026971  00000+0  27797-2 0  9994", "line2": "2 34884  74.0177  54.9969 0002447  77.0755  41.4804 14.90131565878183"}}, "geometry": {"type": "Point", "coordinates": [158.73638559920985, 73.43796369893863]}}, {"type": "Feature", "properties": {"norad_id": 34885, "name": "COSMOS 2251 DEB", "group": "cosmos-2251-debris", "lat": 71.84799664997861, "lon": -61.10924903994845, "alt_km": 723.895963835279, "timestamp": "2025-12-14T11:29:50.455720+00:00", "meta": {"OBJECT_NAME": "COSMOS 2251 DEB", "OBJECT_ID": "1993-036ACY", "EPOCH": "2025-12-13T15:30:02.799936", "MEAN_MOTION": 14.51509369, "ECCENTRICITY": 0.00151801, "INCLINATION": 74.0308, "RA_OF_ASC_NODE": 181.3161, "ARG_OF_PERICENTER": 266.7322, "MEAN_ANOMALY": 160.0049, "EPHEMERIS_TYPE": 0, "CLASSIFICATION_TYPE": "U", "NORAD_CAT_ID": 34885, "ELEMENT_SET_NO": 999, "REV_AT_EPOCH": 87492, "BSTAR": 0.00087894441, "MEAN_MOTION_DOT": 3.493e-05, "MEAN_MOTION_DDOT": 0}, "tle": {"line1": "1 34885U 93036ACY 25347.64586574  .00003493  00000+0  87894-3 0  9992", "line2": "2 34885  74.0308 181.3161 0015180 266.7322 160.0049 14.51509369874929"}}, "geometry": {"type": "Point", "coordinates": [-61.10924903994845, 71.84799664997861]}}, {"type": "Feature", "properties": {"norad_id": 34886, "name": "COSMOS 2251 DEB", "group": "cosmos-2251-debris", "lat": 8.234944525339223, "lon": 179.60978433086365, "alt_km": 430.18239905749397, "timestamp": "2025-12-14T11:29:50.455730+00:00", "meta": {"OBJECT_NAME": "COSMOS 2251 DEB", "OBJECT_ID": "1993-036ACZ", "EPOCH": "2025-12-12T22:00:46.238976", "MEAN_MOTION": 15.3868294, "ECCENTRICITY": 0.0030604, "INCLINATION": 73.9501, "RA_OF_ASC_NODE": 180.6071, "ARG_OF_PERICENTER": 3.9755, "MEAN_ANOMALY": 356.1689, "EPHEMERIS_TYPE": 0, "CLASSIFICATION_TYPE": "U", "NORAD_CAT_ID": 34886, "ELEMENT_SET_NO": 999, "REV_AT_EPOCH": 63001, "BSTAR": 0.002242925, "MEAN_MOTION_DOT": 0.00088092, "MEAN_MOTION_DDOT": 0}, "tle": {"line1": "1 34886U 93036ACZ 25346.91720184  .00088092  00000+0  22429-2 0  9999", "line2": "2 34886  73.9501 180.6071 0030604   3.9755 356.1689 15.38682940630015"}}, "geometry": {"type": "Point", "coordinates": [179.60978433086365, 8.234944525339223]}}, {"type": "Feature", "properties": {"norad_id": 34907, "name": "COSMOS 2251 DEB", "group": "cosmos-2251-debris", "lat": -23.83462231412535, "lon": 37.311425188021516, "alt_km": 420.46336222947957, "timestamp": "2025-12-14T11:29:50.455740+00:00", "meta": {"OBJECT_NAME": "COSMOS 2251 DEB", "OBJECT_ID": "1993-036ADC", "EPOCH": "2025-12-13T10:44:36.236832", "MEAN_MOTION": 15.44754684, "ECCENTRICITY": 0.00204426, "INCLINATION": 73.9697, "RA_OF_ASC_NODE": 46.8636, "ARG_OF_PERICENTER": 340.536, "MEAN_ANOMALY": 19.5067, "EPHEMERIS_TYPE": 0, "CLASSIFICATION_TYPE": "U", "NORAD_CAT_ID": 34907, "ELEMENT_SET_NO": 999, "REV_AT_EPOCH": 87984, "BSTAR": 0.010549392, "MEAN_MOTION_DOT": 0.00531772, "MEAN_MOTION_DDOT": 0}, "tle": {"line1": "1 34907U 93036ADC 25347.44764163  .00531772  00000+0  10549-1 0  9994", "line2": "2 34907  73.9697  46.8636 0020442 340.5360  19.5067 15.44754684879844"}}, "geometry": {"type": "Point", "coordinates": [37.311425188021516, -23.83462231412535]}}, {"type": "Feature", "properties": {"norad_id": 34908, "name": "COSMOS 2251 DEB", "group": "cosmos-2251-debris", "lat": 66.19636682616932, "lon": 60.84535914059604, "alt_km": 737.0855624379928, "timestamp": "2025-12-14T11:29:50.455749+00:00", "meta": {"OBJECT_NAME": "COSMOS 2251 DEB", "OBJECT_ID": "1993-036ADD", "EPOCH": "2025-12-13T03:41:54.621024", "MEAN_MOTION": 14.37400456, "ECCENTRICITY": 0.00400579, "INCLINATION": 74.0594, "RA_OF_ASC_NODE": 22.8951, "ARG_OF_PERICENTER": 38.8609, "MEAN_ANOMALY": 19.5978, "EPHEMERIS_TYPE": 0, "CLASSIFICATION_TYPE": "U", "NORAD_CAT_ID": 34908, "ELEMENT_SET_NO": 999, "REV_AT_EPOCH": 87285, "BSTAR": 0.00075548772, "MEAN_MOTION_DOT": 2.253e-05, "MEAN_MOTION_DDOT": 0}, "tle": {"line1": "1 34908U 93036ADD 25347.15410441  .00002253  00000+0  75549-3 0  9990", "line2": "2 34908  74.0594  22.8951 0040057  38.8609  19.5978 14.37400456872855"}}, "geometry": {"type": "Point", "coordinates": [60.84535914059604, 66.19636682616932]}}]}